STARLINK-31             
1 44235U 19029A   20154.91668981  .02150514  00000-0  68738-1 0  9990
2 44235  53.0017 276.1915 0004009 127.5089 342.8034 15.28402817 58029
STARLINK-22             
1 44236U 19029B   20154.91668981 -.00034845  00000-0 -44892-3 0  9996
2 44236  53.0041 239.3691 0010393 161.5569 283.6291 15.58103748  1774
STARLINK-23             
1 44237U 19029C   20154.91668981  .02601426  00000-0  83274-1 0  9997
2 44237  52.9958 275.9491 0003847 102.1363 332.1777 15.28249903 56919
STARLINK-24             
1 44238U 19029D   20154.82527119  .00002441  00000-0  15346-3 0  9992
2 44238  52.9978 275.7432 0001486 107.3772 252.7382 15.13002158 55273
STARLINK-25             
1 44239U 19029E   20154.91668981  .02449992  00000-0  58128-1 0  9997
2 44239  53.0056 275.8917 0003305 116.8378 347.4192 15.38035241 56831
STARLINK-26             
1 44240U 19029F   20154.71342905  .00004028  00000-0  92591-4 0  9992
2 44240  53.0091 235.2386 0001844  38.8831 321.2307 15.45111728 57455
STARLINK-27             
1 44241U 19029G   20154.91668981  .02068534  00000-0  66362-1 0  9998
2 44241  53.0057 276.3410 0003669 134.4113 353.9102 15.28420161 56904
STARLINK-28             
1 44242U 19029H   20154.91668981 -.00034509  00000-0 -44336-3 0  9993
2 44242  52.9941 233.1700 0001437 146.0415 121.9308 15.58249417  1775
STARLINK-29             
1 44243U 19029J   20154.91668981  .00044080  00000-0  58564-3 0  9995
2 44243  52.9991 181.8778 0009898 158.3583 154.2024 15.57736282  1770
STARLINK-30             
1 44244U 19029K   20154.91668981  .05523486  00000-0  17379+0 0  9998
2 44244  52.9968 275.8476 0003380  55.4474 318.9510 15.27672569 56863
STARLINK-21             
1 44245U 19029L   20154.91668981  .02322800  00000-0  75058-1 0  9993
2 44245  52.9963 276.0200 0003825 119.9310 338.4333 15.28343701 56882
STARLINK-33             
1 44247U 19029N   20154.91668981 -.00037602  00000-0 -48809-3 0  9994
2 44247  53.0057 234.9644 0001682 142.5309  54.0978 15.58020150  1771
STARLINK-34             
1 44248U 19029P   20154.91668981  .05565188  00000-0  58945-1 0  9993
2 44248  52.9984 244.3664 0003409  25.4646 297.9727 15.59354228 57271
STARLINK-61             
1 44249U 19029Q   20154.64620709  .00001320  00000-0  79161-4 0  9994
2 44249  53.0015 265.2454 0005733 329.2757  30.7900 15.18187452 57047
STARLINK-36             
1 44250U 19029R   20154.91668981  .04618432  00000-0  14806+0 0  9992
2 44250  52.9965 275.9411 0003424  79.3759 325.1315 15.27858397 56865
STARLINK-37             
1 44251U 19029S   20154.91668981  .04615646  00000-0  14811+0 0  9993
2 44251  52.9783 274.9860 0003192  86.7855 323.5879 15.27828323 56832
STARLINK-71             
1 44252U 19029T   20154.80787237  .00002519  00000-0  16087-3 0  9994
2 44252  53.0007 276.1240 0001708 122.2941 237.8216 15.12288319 55934
STARLINK-39             
1 44253U 19029U   20154.91668981  .02289461  00000-0  74010-1 0  9994
2 44253  53.0045 276.3034 0003647 125.3623 350.9732 15.28378778 56886
STARLINK-32             
1 44254U 19029V   20154.91668981  .04416687  00000-0  13923+0 0  9993
2 44254  52.9962 275.9413 0003557  97.0286 331.3465 15.27901479 56851
STARLINK-66             
1 44255U 19029W   20154.91668981 -.00036144  00000-0 -47004-3 0  9999
2 44255  53.0032 234.7485 0001374 133.1412  29.9183 15.57952240  1786
STARLINK-42             
1 44256U 19029X   20154.91668981 -.00027071  00000-0 -34409-3 0  9994
2 44256  52.9932 235.7312 0001428 191.5262 179.4636 15.58400534  1784
STARLINK-43             
1 44257U 19029Y   20154.91668981 -.00019733  00000-0 -62461-3 0  9990
2 44257  53.0026 225.3770 0001104 132.9930 211.3411 15.31756729  1762
STARLINK-40             
1 44258U 19029Z   20154.91668981  .04425828  00000-0  13966+0 0  9991
2 44258  52.9959 275.9497 0002945  91.7421 330.6411 15.27855051 56885
STARLINK-52             
1 44259U 19029AA  20154.43598257  .00017459  00000-0  23592-3 0  9990
2 44259  53.0006 185.9464 0001145 171.4932 188.6098 15.57877503 57993
STARLINK-45             
1 44260U 19029AB  20154.91668981  .03587940  00000-0  11319+0 0  9997
2 44260  53.0061 274.8595 0003524 112.2799 340.1378 15.28081187 56961
STARLINK-44             
1 44261U 19029AC  20154.91668981  .03812641  00000-0  12208+0 0  9995
2 44261  52.9960 275.9276 0003715  82.9186 333.5637 15.28018058 56906
STARLINK-49             
1 44262U 19029AD  20154.91668981  .02107824  00000-0  67495-1 0  9995
2 44262  53.0060 276.3487 0003606 142.7162 351.6144 15.28415144 56919
STARLINK-72             
1 44263U 19029AE  20154.91668981  .04868872  00000-0  15579+0 0  9999
2 44263  52.9984 275.7966 0003039  41.8982 326.5474 15.27696571 56895
STARLINK-35             
1 44264U 19029AF  20154.91668981  .04628662  00000-0  14873+0 0  9997
2 44264  52.9966 275.8853 0002835  60.1081 326.3043 15.27770439 56884
STARLINK-63             
1 44265U 19029AG  20154.91668981  .05021626  00000-0  15985+0 0  9991
2 44265  52.9961 275.2549 0003188  66.8290 325.5775 15.27732115 56920
STARLINK-54             
1 44266U 19029AH  20154.91668981  .02347470  00000-0  75652-1 0  9996
2 44266  52.9974 275.2164 0002644 170.5413   5.7681 15.28392697 56846
STARLINK-69             
1 44267U 19029AJ  20154.91668981  .02244219  00000-0  72728-1 0  9995
2 44267  52.9975 275.0994 0004057 127.8492 336.5179 15.28363314 56895
STARLINK-55             
1 44268U 19029AK  20154.91668981 -.00029038  00000-0 -36993-3 0  9992
2 44268  52.9940 233.9955 0001369 145.6522 163.0384 15.58381070  1773
STARLINK-57             
1 44269U 19029AL  20154.91668981  .02233791  00000-0  72305-1 0  9991
2 44269  52.9996 275.6342 0003738 145.7487 354.5805 15.28416532 56933
STARLINK-58             
1 44270U 19029AM  20154.91668981 -.00032241  00000-0 -39275-3 0  9991
2 44270  53.0021 244.4864 0001788 150.2869 328.1101 15.59610228  1788
STARLINK-59             
1 44271U 19029AN  20154.91668981  .04524947  00000-0  14257+0 0  9992
2 44271  52.9956 275.1784 0003069  32.7587 323.6425 15.27802559 56910
STARLINK-51             
1 44272U 19029AP  20154.91668981  .05046154  00000-0  16044+0 0  9999
2 44272  52.9945 275.8035 0003417  56.5987 323.8065 15.27750726 56886
STARLINK-60             
1 44273U 19029AQ  20154.32677624  .00042123  00000-0  55124-3 0  9992
2 44273  52.9952 175.8430 0007875  29.2351 330.9099 15.58181456 58236
STARLINK-62             
1 44274U 19029AR  20154.91668981 -.00035472  00000-0 -43818-3 0  9992
2 44274  53.0049 244.3849 0001690 156.5921 174.9130 15.59295293  1773
STARLINK-64             
1 44275U 19029AS  20154.91668981 -.00032624  00000-0 -85414-3 0  9997
2 44275  52.9922 252.9708 0004793 267.4915 284.9070 15.37952069  1775
STARLINK-65             
1 44276U 19029AT  20154.91668981  .04352371  00000-0  13795+0 0  9993
2 44276  53.0005 275.7701 0003270   9.7708 322.6530 15.27787479 56908
STARLINK-41             
1 44277U 19029AU  20154.91668981 -.00027711  00000-0 -31267-3 0  9997
2 44277  53.0052 236.5166 0007931 163.4916 148.4851 15.61461038  1771
STARLINK-68             
1 44279U 19029AW  20154.91668981  .03447598  00000-0  12124+0 0  9996
2 44279  52.9963 274.7791 0003417  64.6359 314.4043 15.24626989 56874
STARLINK-38             
1 44280U 19029AX  20154.91668981  .04710578  00000-0  15104+0 0  9991
2 44280  52.9997 275.7314 0003141  17.6248 320.8215 15.27769304 56913
STARLINK-70             
1 44281U 19029AY  20154.91668981  .02415686  00000-0  77753-1 0  9992
2 44281  52.9976 275.2925 0003904 113.8735 332.4962 15.28338813 56850
STARLINK-80             
1 44282U 19029AZ  20154.74442422  .00003335  00000-0  14424-3 0  9994
2 44282  53.0212 241.3620 0004010 170.7482 189.3589 15.25261619 55783
STARLINK-56             
1 44283U 19029BA  20154.91668981  .04854697  00000-0  15522+0 0  9999
2 44283  52.9992 275.8156 0003371  27.1673 323.2643 15.27735669 56907
STARLINK-73             
1 44284U 19029BB  20154.91668981  .04810103  00000-0  15394+0 0  9991
2 44284  52.9990 275.7888 0003059  23.1819 321.2740 15.27742613 56899
STARLINK-50             
1 44285U 19029BC  20154.91668981  .03556000  00000-0  15398+0 0  9998
2 44285  53.0008 276.2738 0003006 116.3408 352.2836 15.18021301 57955
STARLINK-75             
1 44286U 19029BD  20154.91668981 -.00035316  00000-0 -45823-3 0  9990
2 44286  53.0056 236.3843 0009164 194.8434 285.4143 15.57939887  1771
STARLINK-76             
1 44287U 19029BE  20154.91668981  .02381339  00000-0  76480-1 0  9991
2 44287  52.9962 275.9765 0003775 114.1365 326.0932 15.28460284 57966
STARLINK-79             
1 44288U 19029BF  20154.91668981  .02877432  00000-0  92872-1 0  9999
2 44288  53.0077 276.4258 0003085 158.2870 354.1167 15.28201534 57966
STARLINK-48             
1 44289U 19029BG  20154.72853898 -.00001045  00000-0 -33163-4 0  9992
2 44289  52.9988 251.0611 0002358 145.2863 214.8285 15.19924511 56439
STARLINK-78             
1 44290U 19029BH  20154.91668981  .02647586  00000-0  84522-1 0  9990
2 44290  53.0069 276.3170 0003027 148.1671 358.2342 15.28269790 57963
STARLINK-77             
1 44291U 19029BJ  20154.91668981  .02470088  00000-0  79206-1 0  9995
2 44291  53.0093 276.5022 0002942 166.7752   3.5629 15.28380937 57965
STARLINK-81             
1 44292U 19029BK  20154.91668981  .02330788  00000-0  75149-1 0  9990
2 44292  53.0096 276.5281 0002197 171.9328  10.3836 15.28400360 57953
STARLINK-74             
1 44293U 19029BL  20154.91668981  .02740846  00000-0  87278-1 0  9997
2 44293  53.0055 276.3734 0003255 131.7554 350.6194 15.28218934 57952
STARLINK-53             
1 44294U 19029BM  20154.91668981  .04976159  00000-0  15864+0 0  9998
2 44294  52.9977 275.1423 0003199  11.9175 314.5446 15.27723146 57966
STARLINK-1007           
1 44713U 19074A   20154.91668981 -.00009435  00000-0 -62884-3 0  9994
2 44713  52.9995 279.8016 0001163  99.7308  38.8154 15.05602301  1755
